{
  "type": "FeatureCollection",
  "features": [
    {
      "type": "Feature",
      "properties": {
        "norad_id": 39160,
        "name": "VNREDSAT 1",
        "group": "resource",
        "lat": -13.948519893839377,
        "lon": 42.03805603359485,
        "alt_km": 681.9839724137992,
        "timestamp": "2025-12-10T16:57:11.291671+00:00",
        "meta_object_name": "VNREDSAT 1",
        "meta_object_id": "2013-021B",
        "meta_epoch": "2025-12-10T12:05:57.764256",
        "meta_mean_motion": 14.64917543,
        "meta_eccentricity": 0.0001327,
        "meta_inclination": 97.9372,
        "meta_ra_of_asc_node": 39.8571,
        "meta_arg_of_pericenter": 78.0818,
        "meta_mean_anomaly": 282.0534,
        "meta_ephemeris_type": 0,
        "meta_classification_type": "U",
        "meta_norad_cat_id": 39160,
        "meta_element_set_no": 999,
        "meta_rev_at_epoch": 67266,
        "meta_bstar": 0.00020507,
        "meta_mean_motion_dot": 1.051e-05,
        "meta_mean_motion_ddot": 0,
        "tle_line1": "1 39160U 13021B   25344.50414079  .00001051  00000+0  20507-3 0  9997",
        "tle_line2": "2 39160  97.9372  39.8571 0001327  78.0818 282.0534 14.64917543672661"
      },
      "geometry": {
        "type": "Point",
        "coordinates": [
          42.03805603359485,
          -13.948519893839377
        ]
      }
    },
    {
      "type": "Feature",
      "properties": {
        "norad_id": 39227,
        "name": "ARIRANG-5 (KOMPSAT-5)",
        "group": "resource",
        "lat": 44.18412690502058,
        "lon": -3.4899126903196938,
        "alt_km": 548.6651517062328,
        "timestamp": "2025-12-10T16:57:11.291681+00:00",
        "meta_object_name": "ARIRANG-5 (KOMPSAT-5)",
        "meta_object_id": "2013-042A",
        "meta_epoch": "2025-12-10T11:33:56.609280",
        "meta_mean_motion": 15.04490416,
        "meta_eccentricity": 0.0003776,
        "meta_inclination": 97.6143,
        "meta_ra_of_asc_node": 168.8183,
        "meta_arg_of_pericenter": 61.6852,
        "meta_mean_anomaly": 298.4754,
        "meta_ephemeris_type": 0,
        "meta_classification_type": "U",
        "meta_norad_cat_id": 39227,
        "meta_element_set_no": 999,
        "meta_rev_at_epoch": 67548,
        "meta_bstar": 0.0002622,
        "meta_mean_motion_dot": 3.61e-05,
        "meta_mean_motion_ddot": 0,
        "tle_line1": "1 39227U 13042A   25344.48190520  .00003610  00000+0  26220-3 0  9994",
        "tle_line2": "2 39227  97.6143 168.8183 0003776  61.6852 298.4754 15.04490416675484"
      },
      "geometry": {
        "type": "Point",
        "coordinates": [
          -3.4899126903196938,
          44.18412690502058
        ]
      }
    },
    {
      "type": "Feature",
      "properties": {
        "norad_id": 39418,
        "name": "SKYSAT-A",
        "group": "resource",
        "lat": 80.26540010799059,
        "lon": -95.67274287665045,
        "alt_km": 536.0867818106308,
        "timestamp": "2025-12-10T16:57:11.291691+00:00",
        "meta_object_name": "SKYSAT-A",
        "meta_object_id": "2013-066C",
        "meta_epoch": "2025-12-10T10:10:19.642080",
        "meta_mean_motion": 15.11576065,
        "meta_eccentricity": 0.0020667,
        "meta_inclination": 97.4109,
        "meta_ra_of_asc_node": 34.7024,
        "meta_arg_of_pericenter": 245.1831,
        "meta_mean_anomaly": 114.725,
        "meta_ephemeris_type": 0,
        "meta_classification_type": "U",
        "meta_norad_cat_id": 39418,
        "meta_element_set_no": 999,
        "meta_rev_at_epoch": 65995,
        "meta_bstar": 0.00036303,
        "meta_mean_motion_dot": 6.128e-05,
        "meta_mean_motion_ddot": 0,
        "tle_line1": "1 39418U 13066C   25344.42383845  .00006128  00000+0  36303-3 0  9990",
        "tle_line2": "2 39418  97.4109  34.7024 0020667 245.1831 114.7250 15.11576065659953"
      },
      "geometry": {
        "type": "Point",
        "coordinates": [
          -95.67274287665045,
          80.26540010799059
        ]
      }
    },
    {
      "type": "Feature",
      "properties": {
        "norad_id": 39419,
        "name": "DUBAISAT-2",
        "group": "resource",
        "lat": -79.19503940975282,
        "lon": 111.92686239889821,
        "alt_km": 545.6406829346579,
        "timestamp": "2025-12-10T16:57:11.291701+00:00",
        "meta_object_name": "DUBAISAT-2",
        "meta_object_id": "2013-066D",
        "meta_epoch": "2025-12-10T11:01:01.325568",
        "meta_mean_motion": 15.08324374,
        "meta_eccentricity": 0.0010898,
        "meta_inclination": 97.445,
        "meta_ra_of_asc_node": 334.9368,
        "meta_arg_of_pericenter": 329.4056,
        "meta_mean_anomaly": 30.6536,
        "meta_ephemeris_type": 0,
        "meta_classification_type": "U",
        "meta_norad_cat_id": 39419,
        "meta_element_set_no": 999,
        "meta_rev_at_epoch": 65792,
        "meta_bstar": 0.00062405,
        "meta_mean_motion_dot": 9.643e-05,
        "meta_mean_motion_ddot": 0,
        "tle_line1": "1 39419U 13066D   25344.45904312  .00009643  00000+0  62405-3 0  9999",
        "tle_line2": "2 39419  97.4450 334.9368 0010898 329.4056  30.6536 15.08324374657927"
      },
      "geometry": {
        "type": "Point",
        "coordinates": [
          111.92686239889821,
          -79.19503940975282
        ]
      }
    },
    {
      "type": "Feature",
      "properties": {
        "norad_id": 39574,
        "name": "GPM-CORE",
        "group": "resource",
        "lat": 45.628504152553504,
        "lon": 10.961767540743972,
        "alt_km": 430.67113810229057,
        "timestamp": "2025-12-10T16:57:11.291711+00:00",
        "meta_object_name": "GPM-CORE",
        "meta_object_id": "2014-009C",
        "meta_epoch": "2025-12-10T08:38:10.036032",
        "meta_mean_motion": 15.45477231,
        "meta_eccentricity": 0.0010512,
        "meta_inclination": 64.9737,
        "meta_ra_of_asc_node": 220.6497,
        "meta_arg_of_pericenter": 270.2347,
        "meta_mean_anomaly": 89.7589,
        "meta_ephemeris_type": 0,
        "meta_classification_type": "U",
        "meta_norad_cat_id": 39574,
        "meta_element_set_no": 999,
        "meta_rev_at_epoch": 66864,
        "meta_bstar": 0.00038248,
        "meta_mean_motion_dot": 0.00018262,
        "meta_mean_motion_ddot": 0,
        "tle_line1": "1 39574U 14009C   25344.35983838  .00018262  00000+0  38248-3 0  9993",
        "tle_line2": "2 39574  64.9737 220.6497 0010512 270.2347  89.7589 15.45477231668645"
      },
      "geometry": {
        "type": "Point",
        "coordinates": [
          10.961767540743972,
          45.628504152553504
        ]
      }
    },
    {
      "type": "Feature",
      "properties": {
        "norad_id": 39634,
        "name": "SENTINEL-1A",
        "group": "resource",
        "lat": -67.4081716685793,
        "lon": 149.75256737955283,
        "alt_km": 703.8814034383449,
        "timestamp": "2025-12-10T16:57:11.291721+00:00",
        "meta_object_name": "SENTINEL-1A",
        "meta_object_id": "2014-016A",
        "meta_epoch": "2025-12-10T10:52:44.967072",
        "meta_mean_motion": 14.59201222,
        "meta_eccentricity": 0.0001281,
        "meta_inclination": 98.1803,
        "meta_ra_of_asc_node": 349.7282,
        "meta_arg_of_pericenter": 82.9542,
        "meta_mean_anomaly": 277.1803,
        "meta_ephemeris_type": 0,
        "meta_classification_type": "U",
        "meta_norad_cat_id": 39634,
        "meta_element_set_no": 999,
        "meta_rev_at_epoch": 62249,
        "meta_bstar": 6.8399e-05,
        "meta_mean_motion_dot": 2.77e-06,
        "meta_mean_motion_ddot": 0,
        "tle_line1": "1 39634U 14016A   25344.45329823  .00000277  00000+0  68399-4 0  9995",
        "tle_line2": "2 39634  98.1803 349.7282 0001281  82.9542 277.1803 14.59201222622492"
      },
      "geometry": {
        "type": "Point",
        "coordinates": [
          149.75256737955283,
          -67.4081716685793
        ]
      }
    },
    {
      "type": "Feature",
      "properties": {
        "norad_id": 39731,
        "name": "KAZEOSAT 1",
        "group": "resource",
        "lat": -11.42345159182971,
        "lon": 58.35828978569034,
        "alt_km": 756.2142175844047,
        "timestamp": "2025-12-10T16:57:11.291731+00:00",
        "meta_object_name": "KAZEOSAT 1",
        "meta_object_id": "2014-024A",
        "meta_epoch": "2025-12-10T12:00:38.869632",
        "meta_mean_motion": 14.42061145,
        "meta_eccentricity": 0.0001099,
        "meta_inclination": 98.3432,
        "meta_ra_of_asc_node": 56.4578,
        "meta_arg_of_pericenter": 94.085,
        "meta_mean_anomaly": 266.0466,
        "meta_ephemeris_type": 0,
        "meta_classification_type": "U",
        "meta_norad_cat_id": 39731,
        "meta_element_set_no": 999,
        "meta_rev_at_epoch": 61136,
        "meta_bstar": 0.00018673,
        "meta_mean_motion_dot": 5.7e-06,
        "meta_mean_motion_ddot": 0,
        "tle_line1": "1 39731U 14024A   25344.50044988  .00000570  00000+0  18673-3 0  9999",
        "tle_line2": "2 39731  98.3432  56.4578 0001099  94.0850 266.0466 14.42061145611369"
      },
      "geometry": {
        "type": "Point",
        "coordinates": [
          58.35828978569034,
          -11.42345159182971
        ]
      }
    }
  ]
}